GLOBALSTAR M075         
1 37192U 10054E   24185.69901903 -.00000100  00000+0  21654-4 0  9992
2 37192  51.9923 162.6057 0000145  35.6713 135.4393 12.62261339631996
GLOBALSTAR M073         
1 37193U 10054F   24185.91697620 -.00000094  00000+0  53237-4 0  9990
2 37193  52.0067  75.4972 0000691  49.0406  31.6121 12.62266592633858
GLOBALSTAR M083         
1 37739U 11033A   24185.93247772 -.00000074  00000+0  16687-3 0  9990
2 37739  51.9875  24.6550 0000794  97.4068 355.6275 12.62261673602874
GLOBALSTAR M088         
1 37740U 11033B   24185.76254885 -.00000092  00000+0  63239-4 0  9992
2 37740  51.9741 290.9589 0000713 140.0571  20.3492 12.62264714598390
GLOBALSTAR M091         
1 37741U 11033C   24185.93666781 -.00000076  00000+0  15336-3 0  9990
2 37741  51.9987 253.3632 0000702 163.3789   7.2100 12.62264420599207
GLOBALSTAR M085         
1 37742U 11033D   24185.76488844 -.00000077  00000+0  15046-3 0  9993
2 37742  51.9838 205.2294 0000347 180.9407 350.1605 12.62263189599694
